0 ONEWEB-0607
1 54671U 22166AF  24268.57457441  .00000077  00000-0  15467-3 0  9999
2 54671  87.9369   9.5358 0001600 100.2551 259.8763 13.21828083 88235
0 ONEWEB-0608
1 54672U 22166AG  24268.58085806  .00002506  00000-0  60361-2 0  9994
2 54672  87.9374   9.5617 0001608  93.2369 266.8949 13.21811176 88707
0 ONEWEB-0610
1 54673U 22166AH  24268.56193732 -.00000426  00000-0 -10628-2 0  9993
2 54673  87.9369   9.5555 0001418  91.0019 269.1278 13.21825879 88144
0 ONEWEB-0611
1 54674U 22166AJ  24268.55563058  .00000062  00000-0  11945-3 0  9993
2 54674  87.9369   9.5551 0002168 106.8291 253.3081 13.21828871 88132
0 ONEWEB-0612
1 54675U 22166AK  24268.56826158  .00000129  00000-0  28163-3 0  9992
2 54675  87.9366   9.5341 0001648  97.1138 263.0183 13.21828724 88128
0 ONEWEB-0615
1 54676U 22166AL  24268.54933795  .00000222  00000-0  50557-3 0  9993
2 54676  87.9366   9.5627 0001648 107.0522 253.0792 13.21825039 88136
0 ONEWEB-0655
1 54677U 22166AM  24268.52253113  .00000135  00000-0  29631-3 0  9993
2 54677  87.9369   9.5708 0001568 113.9861 246.1438 13.21828323 88121
0 ONEWEB-0659
1 54678U 22166AN  24268.53988190  .00000151  00000-0  33446-3 0  9992
2 54678  87.9364   9.5724 0002083  99.5470 260.5899 13.21827373 88218
